     3.03           N: GNSS NAV DATA    M: MIXED            RINEX VERSION / TYPE
GR30 V4.20          ASI-egeos           20210726 235942 UTC PGM / RUN BY / DATE
GAL    6.8250D+01  3.0078D-01  8.1787D-03                   IONOSPHERIC CORR
GPSA   4.6566D-09  1.4901D-08 -5.9605D-08 -5.9605D-08       IONOSPHERIC CORR
GPSB   7.9872D+04  6.5536D+04 -6.5536D+04 -3.9322D+05       IONOSPHERIC CORR
BDSA   8.3819D-09  7.4506D-08 -5.9605D-07  8.9407D-07 U 05  IONOSPHERIC CORR
BDSA   8.3819D-09  7.4506D-08 -5.9605D-07  8.9407D-07 O 06  IONOSPHERIC CORR
BDSA   8.3819D-09  7.4506D-08 -5.9605D-07  8.9407D-07 U 07  IONOSPHERIC CORR
BDSA   9.3132D-09  5.9605D-08 -5.3644D-07  8.3447D-07 G 08  IONOSPHERIC CORR
BDSA   8.3819D-09  7.4506D-08 -5.9605D-07  8.9407D-07 S 09  IONOSPHERIC CORR
BDSA   8.3819D-09  7.4506D-08 -5.9605D-07  8.9407D-07 U 10  IONOSPHERIC CORR
BDSA   8.3819D-09  7.4506D-08 -5.9605D-07  9.5367D-07 M 11  IONOSPHERIC CORR
BDSA   8.3819D-09  6.7055D-08 -5.3644D-07  8.3447D-07 I 12  IONOSPHERIC CORR
BDSA   8.3819D-09  7.4506D-08 -5.9605D-07  8.9407D-07 K 13  IONOSPHERIC CORR
BDSA   8.3819D-09  7.4506D-08 -5.9605D-07  9.5367D-07 M 14  IONOSPHERIC CORR
BDSA   8.3819D-09  7.4506D-08 -5.9605D-07  8.9407D-07 O 16  IONOSPHERIC CORR
BDSA   8.3819D-09  7.4506D-08 -5.9605D-07  8.9407D-07 U 19  IONOSPHERIC CORR
BDSA   8.3819D-09  7.4506D-08 -5.9605D-07  8.9407D-07 U 20  IONOSPHERIC CORR
BDSA   8.3819D-09  7.4506D-08 -5.9605D-07  8.9407D-07 W 21  IONOSPHERIC CORR
BDSA   8.3819D-09  7.4506D-08 -5.9605D-07  8.9407D-07 U 22  IONOSPHERIC CORR
BDSA   8.3819D-09  7.4506D-08 -5.9605D-07  8.9407D-07 S 23  IONOSPHERIC CORR
BDSA   9.3132D-09  5.9605D-08 -5.3644D-07  8.3447D-07 G 24  IONOSPHERIC CORR
BDSA   8.3819D-09  7.4506D-08 -5.9605D-07  8.9407D-07 Q 25  IONOSPHERIC CORR
BDSA   9.3132D-09  5.2154D-08 -4.7684D-07  7.7486D-07 E 26  IONOSPHERIC CORR
BDSA   8.3819D-09  7.4506D-08 -5.9605D-07  8.9407D-07 W 27  IONOSPHERIC CORR
BDSA   8.3819D-09  7.4506D-08 -5.9605D-07  8.9407D-07 O 28  IONOSPHERIC CORR
BDSA   8.3819D-09  7.4506D-08 -5.9605D-07  8.9407D-07 S 29  IONOSPHERIC CORR
BDSA   8.3819D-09  7.4506D-08 -5.9605D-07  8.9407D-07 W 30  IONOSPHERIC CORR
BDSB   1.2493D+05 -9.8304D+04  1.2452D+06 -9.8304D+05 U 05  IONOSPHERIC CORR
BDSB   1.3312D+05 -1.8022D+05  1.5073D+06 -1.1141D+06 O 06  IONOSPHERIC CORR
BDSB   1.2493D+05 -9.8304D+04  1.2452D+06 -9.8304D+05 U 07  IONOSPHERIC CORR
BDSB   1.2902D+05 -1.1469D+05  1.2452D+06 -9.1750D+05 G 08  IONOSPHERIC CORR
BDSB   1.2698D+05 -8.1920D+04  1.1141D+06 -8.5197D+05 S 09  IONOSPHERIC CORR
BDSB   1.2493D+05 -9.8304D+04  1.2452D+06 -9.8304D+05 U 10  IONOSPHERIC CORR
BDSB   1.3107D+05 -1.8022D+05  1.5073D+06 -1.1141D+06 M 11  IONOSPHERIC CORR
BDSB   1.3312D+05 -1.6384D+05  1.5073D+06 -1.1141D+06 I 12  IONOSPHERIC CORR
BDSB   1.3312D+05 -1.9661D+05  1.5729D+06 -1.1141D+06 K 13  IONOSPHERIC CORR
BDSB   1.3107D+05 -1.8022D+05  1.5073D+06 -1.1141D+06 M 14  IONOSPHERIC CORR
BDSB   1.3312D+05 -1.8022D+05  1.5073D+06 -1.1141D+06 O 16  IONOSPHERIC CORR
BDSB   1.2493D+05 -9.8304D+04  1.2452D+06 -9.8304D+05 U 19  IONOSPHERIC CORR
BDSB   1.2493D+05 -9.8304D+04  1.2452D+06 -9.8304D+05 U 20  IONOSPHERIC CORR
BDSB   1.2493D+05 -9.8304D+04  1.2452D+06 -9.8304D+05 W 21  IONOSPHERIC CORR
BDSB   1.2493D+05 -9.8304D+04  1.2452D+06 -9.8304D+05 U 22  IONOSPHERIC CORR
BDSB   1.2698D+05 -8.1920D+04  1.1141D+06 -8.5197D+05 S 23  IONOSPHERIC CORR
BDSB   1.2902D+05 -1.1469D+05  1.2452D+06 -9.1750D+05 G 24  IONOSPHERIC CORR
BDSB   1.3517D+05 -2.1299D+05  1.6384D+06 -1.1796D+06 Q 25  IONOSPHERIC CORR
BDSB   1.2698D+05 -6.5536D+04  9.8304D+05 -7.8643D+05 E 26  IONOSPHERIC CORR
BDSB   1.2493D+05 -9.8304D+04  1.2452D+06 -9.8304D+05 W 27  IONOSPHERIC CORR
BDSB   1.3312D+05 -1.8022D+05  1.5073D+06 -1.1141D+06 O 28  IONOSPHERIC CORR
BDSB   1.2698D+05 -8.1920D+04  1.1141D+06 -8.5197D+05 S 29  IONOSPHERIC CORR
BDSB   1.2493D+05 -9.8304D+04  1.2452D+06 -9.8304D+05 W 30  IONOSPHERIC CORR
GPUT -5.5879354477D-09-1.332267630D-14 319488 2168          TIME SYSTEM CORR
GLUT  2.7939677238D-09 0.000000000D+00      0    0          TIME SYSTEM CORR
GAUT  0.0000000000D+00 0.000000000D+00  86400 2168          TIME SYSTEM CORR
GPGA  3.4633558244D-09 6.661338148D-15 172800 2168          TIME SYSTEM CORR
BDUT -9.3132257462D-10-2.042810365D-14 172745  812          TIME SYSTEM CORR
    18    18  1929     7                                    LEAP SECONDS
                                                            END OF HEADER
E36 2021 07 27 10 30 00-2.400993835181D-04-5.258016244625D-12 0.000000000000D+00
     9.500000000000D+01 1.293750000000D+02 2.877619864418D-09-3.546732516446D-01
     6.165355443954D-06 1.357189612463D-04 4.250556230545D-06 5.440601675034D+03
     2.106000000000D+05 4.656612873077D-08 1.520970489795D+00 4.842877388000D-08
     9.951736407710D-01 2.640937500000D+02 1.243822539527D+00-5.648092408577D-09
     2.528676758108D-10 5.130000000000D+02 2.168000000000D+03 0.000000000000D+00
     3.120000000000D+00 0.000000000000D+00 5.820766091347D-09 6.752088665962D-09
     2.112640000000D+05
E11 2021 07 27 10 30 00 5.662269191816D-03-5.316280748957D-11 0.000000000000D+00
     9.500000000000D+01 1.180312500000D+02 2.797259374224D-09 4.819118565117D-01
     5.541369318962D-06 4.803605843335D-04 4.902482032776D-06 5.440613176346D+03
     2.106000000000D+05-6.332993507385D-08 1.524254632627D+00 7.264316082001D-08
     9.920040444245D-01 2.511875000000D+02 1.175630528222D+00-5.622734209449D-09
     2.653681965077D-10 5.130000000000D+02 2.168000000000D+03 0.000000000000D+00
     3.120000000000D+00 0.000000000000D+00-1.327134668827D-08-1.443549990654D-08
     2.112640000000D+05
E04 2021 07 27 10 30 00-8.221345487982D-04-8.100187187665D-12 0.000000000000D+00
     9.500000000000D+01-1.012187500000D+02 2.805116844376D-09 1.607083717168D+00
    -4.626810550690D-06 2.317135222256D-04 1.169182360172D-05 5.440634189606D+03
     2.106000000000D+05-1.862645149231D-08-2.657268433462D+00 7.264316082001D-08
     9.555426618902D-01 8.646875000000D+01-1.256516854628D+00-5.400582098779D-09
     8.571785620706D-11 2.580000000000D+02 2.168000000000D+03 0.000000000000D+00
     3.120000000000D+00 0.000000000000D+00-3.026798367500D-09 0.000000000000D+00
     2.113000000000D+05
E11 2021 07 27 10 30 00 5.662270938046D-03-5.317701834429D-11 0.000000000000D+00
     9.500000000000D+01 1.180312500000D+02 2.797259374224D-09 4.819118565117D-01
     5.541369318962D-06 4.803605843335D-04 4.902482032776D-06 5.440613176346D+03
     2.106000000000D+05-6.332993507385D-08 1.524254632627D+00 7.264316082001D-08
     9.920040444245D-01 2.511875000000D+02 1.175630528222D+00-5.622734209449D-09
     2.653681965077D-10 2.580000000000D+02 2.168000000000D+03 0.000000000000D+00
     3.120000000000D+00 0.000000000000D+00-1.327134668827D-08 0.000000000000D+00
     2.113000000000D+05
E09 2021 07 27 10 30 00 5.586502607912D-03-1.284661266254D-11 0.000000000000D+00
     9.500000000000D+01-9.006250000000D+01 2.757972023462D-09 6.983619810082D-04
    -4.179775714874D-06 3.673592582345D-04 1.161545515060D-05 5.440638166428D+03
     2.106000000000D+05 1.490116119385D-08-2.661879416659D+00 1.303851604462D-08
     9.614975035790D-01 9.043750000000D+01-4.528469161032D-01-5.427368928844D-09
     4.893060958486D-11 2.580000000000D+02 2.168000000000D+03 0.000000000000D+00
     3.120000000000D+00 0.000000000000D+00 1.629814505577D-09 0.000000000000D+00
     2.113000000000D+05
E02 2021 07 27 10 30 00 2.357699559070D-04 2.586375558167D-12 0.000000000000D+00
     9.500000000000D+01-3.268750000000D+01 3.360854278785D-09 2.827594870687D+00
    -1.395121216774D-06 2.173315733671D-04 5.450099706650D-06 5.440594264984D+03
     2.106000000000D+05-4.470348358154D-08-5.584670720409D-01 1.303851604462D-08
     9.771792407634D-01 2.293125000000D+02-6.414022049764D-01-5.668450399426D-09
    -2.839403986859D-10 2.580000000000D+02 2.168000000000D+03 0.000000000000D+00
     3.120000000000D+00 0.000000000000D+00-1.164153218269D-09 0.000000000000D+00
     2.113000000000D+05
E36 2021 07 27 10 30 00-2.400996745564D-04-5.258016244625D-12 0.000000000000D+00
     9.500000000000D+01 1.293750000000D+02 2.877619864418D-09-3.546732516446D-01
     6.165355443954D-06 1.357189612463D-04 4.250556230545D-06 5.440601675034D+03
     2.106000000000D+05 4.656612873077D-08 1.520970489795D+00 4.842877388000D-08
     9.951736407710D-01 2.640937500000D+02 1.243822539527D+00-5.648092408577D-09
     2.528676758108D-10 2.580000000000D+02 2.168000000000D+03 0.000000000000D+00
     3.120000000000D+00 0.000000000000D+00 5.820766091347D-09 0.000000000000D+00
     2.113000000000D+05
E12 2021 07 27 10 30 00 5.090487189591D-03-1.891464762593D-11 0.000000000000D+00
     9.500000000000D+01 1.163437500000D+02 2.755114761589D-09 1.671912149189D+00
     5.254521965981D-06 3.283531405032D-04 5.029141902924D-06 5.440609502792D+03
     2.106000000000D+05-5.774199962616D-08 1.524247050322D+00-2.607703208923D-08
     9.920180591797D-01 2.471875000000D+02 7.940420840457D-01-5.556302870888D-09
     2.235807416067D-10 2.580000000000D+02 2.168000000000D+03 0.000000000000D+00
     3.120000000000D+00 0.000000000000D+00-1.047737896442D-08 0.000000000000D+00
     2.113000000000D+05
C28 2021 07 27 10 00 00-4.571885801852D-05 4.423128530107D-12 0.000000000000D+00
     1.000000000000D+00 1.279218750000D+02 3.586220809063D-09-2.518858327828D+00
     6.219372153282D-06 1.981471432373D-04 9.494833648205D-06 5.282627504349D+03
     2.088000000000D+05-1.769512891769D-08 1.061655266775D+00-1.769512891769D-08
     9.663146514325D-01 1.681875000000D+02 2.866720488907D+00-6.765281801142D-09
     7.000291590243D-11                    8.120000000000D+02                   
     2.000000000000D+00 0.000000000000D+00-4.400000000000D-09-4.400000000000D-09
     2.115900000000D+05 1.000000000000D+00                                      
